{"type":"FeatureCollection","features":[{"type":"Feature","geometry":{"type":"Point","coordinates":[127.752031,26.325874]},"properties":{"name":"グループホーム　ちゃたん","category":"入所","address":"北谷町宮城１番７９３","detail":"0","source":"介護サービス情報公表システム（厚生労働省）","kinds":["認知症対応型共同生活介護（GH）"]}},{"type":"Feature","geometry":{"type":"Point","coordinates":[127.7724,26.327646]},"properties":{"name":"グループホーム　上勢頭（ｶﾐｾｲﾄﾞ）","category":"入所","address":"沖縄県中頭郡北谷町字上勢頭633-1","detail":"0","source":"介護サービス情報公表システム（厚生労働省）","kinds":["認知症対応型共同生活介護（GH）"]}},{"type":"Feature","geometry":{"type":"Point","coordinates":[127.759675,26.321883]},"properties":{"name":"介護付き高齢者住宅　すこやかの森ヴィラ北谷","category":"入所","address":"沖縄県中頭郡北谷町伊平二丁目1番10号","detail":"60","source":"介護サービス情報公表システム（厚生労働省）","kinds":["特定施設入居者生活介護（サ高住）"]}},{"type":"Feature","geometry":{"type":"Point","coordinates":[127.777564,26.316555]},"properties":{"name":"介護老人保健施設　白川園","category":"入所","address":"沖縄県中頭郡北谷町字吉原２６３番地","detail":"100","source":"介護サービス情報公表システム（厚生労働省）","kinds":["介護老人保健施設（老健）"]}},{"type":"Feature","geometry":{"type":"Point","coordinates":[127.777503,26.316022]},"properties":{"name":"指定介護老人福祉施設　陽明園","category":"入所","address":"沖縄県中頭郡北谷町字吉原265番地","detail":"70","source":"介護サービス情報公表システム（厚生労働省）","kinds":["介護老人福祉施設（特養）"]}},{"type":"Feature","geometry":{"type":"Point","coordinates":[127.766159,26.323338]},"properties":{"name":"有料老人ホーム　ちゅうざん","category":"入所","address":"沖縄県中頭郡北谷町字桑江400-2","detail":"34","source":"介護サービス情報公表システム（厚生労働省）","kinds":["特定施設入居者生活介護（有料老人ホーム）"]}},{"type":"Feature","geometry":{"type":"Point","coordinates":[127.765856,26.31122]},"properties":{"name":"認知症対応型グループホーム結の郷","category":"入所","address":"沖縄県中頭郡北谷町吉原1180-1番地","detail":"9","source":"介護サービス情報公表システム（厚生労働省）","kinds":["認知症対応型共同生活介護（GH）"]}},{"type":"Feature","geometry":{"type":"Point","coordinates":[127.749817,26.324052]},"properties":{"name":"OCCデンタルクリニック","category":"医療","address":"北谷町字宮城1-26","detail":"歯科","source":"国土数値情報 医療機関データ（2020年）","kinds":["歯科診療所"]}},{"type":"Feature","geometry":{"type":"Point","coordinates":[127.755029,26.324876]},"properties":{"name":"あおぞら歯科","category":"医療","address":"北谷町美浜３丁目６−５　２Ｆ","detail":"歯科　小児歯科","source":"国土数値情報 医療機関データ（2020年）","kinds":["歯科診療所"]}},{"type":"Feature","geometry":{"type":"Point","coordinates":[127.761414,26.318407]},"properties":{"name":"あゆみ眼科","category":"医療","address":"北谷町字桑江110番地","detail":"眼科　小児眼科","source":"国土数値情報 医療機関データ（2020年）","kinds":["診療所"]}},{"type":"Feature","geometry":{"type":"Point","coordinates":[127.762473,26.319766]},"properties":{"name":"こばし内科クリニック","category":"医療","address":"北谷町字桑江１２３番地","detail":"内科　泌尿器科　皮膚科","source":"国土数値情報 医療機関データ（2020年）","kinds":["診療所"]}},{"type":"Feature","geometry":{"type":"Point","coordinates":[127.759624,26.32155]},"properties":{"name":"しんはま耳鼻科・形成外科・しんはま皮ふ科","category":"医療","address":"北谷町字伊平250番地","detail":"耳鼻咽喉科　形成外科　皮膚科","source":"国土数値情報 医療機関データ（2020年）","kinds":["診療所"]}},{"type":"Feature","geometry":{"type":"Point","coordinates":[127.769206,26.327257]},"properties":{"name":"ちば歯科医院","category":"医療","address":"北谷町字上勢頭８２０−１","detail":"歯科","source":"国土数値情報 医療機関データ（2020年）","kinds":["歯科診療所"]}},{"type":"Feature","geometry":{"type":"Point","coordinates":[127.762473,26.319766]},"properties":{"name":"とうま整形外科クリニック","category":"医療","address":"北谷町字桑江１２３番地２階","detail":"整形外科　リハビリテーション科","source":"国土数値情報 医療機関データ（2020年）","kinds":["診療所"]}},{"type":"Feature","geometry":{"type":"Point","coordinates":[127.757122,26.321765]},"properties":{"name":"へんとな歯科医院","category":"医療","address":"北谷町美浜３丁目３−５","detail":"歯科　小児歯科　歯科口腔外科","source":"国土数値情報 医療機関データ（2020年）","kinds":["歯科診療所"]}},{"type":"Feature","geometry":{"type":"Point","coordinates":[127.775956,26.328792]},"properties":{"name":"まちだクリニック","category":"医療","address":"北谷町上勢頭５５６−３","detail":"内視鏡内科　小児科　外科","source":"国土数値情報 医療機関データ（2020年）","kinds":["診療所"]}},{"type":"Feature","geometry":{"type":"Point","coordinates":[127.762236,26.310351]},"properties":{"name":"まつしま歯科医院","category":"医療","address":"北谷町美浜１−１−１０","detail":"歯科　小児歯科　矯正歯科　歯科口腔外科","source":"国土数値情報 医療機関データ（2020年）","kinds":["歯科診療所"]}},{"type":"Feature","geometry":{"type":"Point","coordinates":[127.758548,26.319614]},"properties":{"name":"もりなが内科・小児科クリニック","category":"医療","address":"中頭郡北谷町美浜二丁目7番7号","detail":"小児科　内科　皮膚科","source":"国土数値情報 医療機関データ（2020年）","kinds":["診療所"]}},{"type":"Feature","geometry":{"type":"Point","coordinates":[127.749581,26.332569]},"properties":{"name":"やびく産婦人科小児科","category":"医療","address":"北谷町字砂辺３０６","detail":"内科　小児科　産科　婦人科　皮膚科　外科　整形外科　泌尿器科","source":"国土数値情報 医療機関データ（2020年）","kinds":["診療所"]}},{"type":"Feature","geometry":{"type":"Point","coordinates":[127.771451,26.321436]},"properties":{"name":"アイ歯科医院","category":"医療","address":"北谷町字桑江６２０−１０","detail":"歯科　矯正歯科　小児歯科","source":"国土数値情報 医療機関データ（2020年）","kinds":["歯科診療所"]}},{"type":"Feature","geometry":{"type":"Point","coordinates":[127.773505,26.329109]},"properties":{"name":"ウェルライフクリニックたまき内科","category":"医療","address":"北谷町字上勢頭６３０番地７","detail":"内科","source":"国土数値情報 医療機関データ（2020年）","kinds":["診療所"]}},{"type":"Feature","geometry":{"type":"Point","coordinates":[127.758841,26.300187]},"properties":{"name":"ハンビー歯科クリニック","category":"医療","address":"北谷町北前1-19-9","detail":"歯科　小児歯科　矯正歯科　歯科口腔外科","source":"国土数値情報 医療機関データ（2020年）","kinds":["歯科診療所"]}},{"type":"Feature","geometry":{"type":"Point","coordinates":[127.769574,26.325532]},"properties":{"name":"ピース デンタル クリニック","category":"医療","address":"北谷町字桑江４６８−３","detail":"歯科　小児歯科","source":"国土数値情報 医療機関データ（2020年）","kinds":["歯科診療所"]}},{"type":"Feature","geometry":{"type":"Point","coordinates":[127.778202,26.320849]},"properties":{"name":"ファミリー歯科医院","category":"医療","address":"北谷町桃原７−６　メゾンラック１Ｆ","detail":"歯科　小児歯科","source":"国土数値情報 医療機関データ（2020年）","kinds":["歯科診療所"]}},{"type":"Feature","geometry":{"type":"Point","coordinates":[127.761083,26.321987]},"properties":{"name":"フェイスデンタルオフィス","category":"医療","address":"沖縄県中頭郡北谷町字伊平327番地1","detail":"歯科　小児歯科　歯科口腔外科","source":"国土数値情報 医療機関データ（2020年）","kinds":["歯科診療所"]}},{"type":"Feature","geometry":{"type":"Point","coordinates":[127.760128,26.304898]},"properties":{"name":"ヤラ　デンタルクリニック","category":"医療","address":"北谷町北谷２−１７−６　ＲＹＯ　ＭＡＮＳＩＯＮ　１０３号室","detail":"歯科　矯正歯科　小児歯科　歯科口腔外科","source":"国土数値情報 医療機関データ（2020年）","kinds":["歯科診療所"]}},{"type":"Feature","geometry":{"type":"Point","coordinates":[127.759758,26.313947]},"properties":{"name":"ユニバーサル矯正歯科クリニック","category":"医療","address":"北谷町字美浜２−３−１　サンライズ１Ｆ","detail":"歯科　矯正歯科　小児歯科　歯科口腔外科","source":"国土数値情報 医療機関データ（2020年）","kinds":["歯科診療所"]}},{"type":"Feature","geometry":{"type":"Point","coordinates":[127.753265,26.325251]},"properties":{"name":"一般社団法人中部地区医師会検診センター","category":"医療","address":"北谷町字宮城１−５８４","detail":"内科　外科　婦人科　歯科","source":"国土数値情報 医療機関データ（2020年）","kinds":["診療所"]}},{"type":"Feature","geometry":{"type":"Point","coordinates":[127.772644,26.329267]},"properties":{"name":"北上中央病院","category":"医療","address":"北谷町字上勢頭６３１−９","detail":"内科　外科　泌尿器科　皮膚科　精神科","source":"国土数値情報 医療機関データ（2020年）","kinds":["病院"]}},{"type":"Feature","geometry":{"type":"Point","coordinates":[127.758808,26.322916]},"properties":{"name":"北谷パレスデンタルクリニック","category":"医療","address":"中頭郡北谷町伊平188-1","detail":"歯科　小児歯科　矯正歯科　歯科口腔外科","source":"国土数値情報 医療機関データ（2020年）","kinds":["歯科診療所"]}},{"type":"Feature","geometry":{"type":"Point","coordinates":[127.750035,26.324303]},"properties":{"name":"北谷歯科クリニック","category":"医療","address":"北谷町宮城１−３７","detail":"歯科　歯科口腔外科　矯正歯科　小児歯科","source":"国土数値情報 医療機関データ（2020年）","kinds":["歯科診療所"]}},{"type":"Feature","geometry":{"type":"Point","coordinates":[127.768517,26.327399]},"properties":{"name":"医療法人八重会たまきクリニック","category":"医療","address":"北谷町字上勢頭８３７−８","detail":"内科　呼吸器科　胃腸科　循環器科　放射線科　リハビリテ−ション科","source":"国土数値情報 医療機関データ（2020年）","kinds":["診療所"]}},{"type":"Feature","geometry":{"type":"Point","coordinates":[127.773138,26.329603]},"properties":{"name":"医療法人沖縄徳洲会　北谷病院","category":"医療","address":"北谷町字上勢頭６３１番地４","detail":"内科　小児科　外科　整形外科　泌尿器科　リハビリテーション科","source":"国土数値情報 医療機関データ（2020年）","kinds":["病院"]}},{"type":"Feature","geometry":{"type":"Point","coordinates":[127.771574,26.32845]},"properties":{"name":"大城ヒフ科クリニック","category":"医療","address":"北谷町字上勢頭６２９−１","detail":"皮膚科","source":"国土数値情報 医療機関データ（2020年）","kinds":["診療所"]}},{"type":"Feature","geometry":{"type":"Point","coordinates":[127.771347,26.327981]},"properties":{"name":"平田歯科医院","category":"医療","address":"北谷町字上勢頭８１５−６","detail":"歯科　小児歯科","source":"国土数値情報 医療機関データ（2020年）","kinds":["歯科診療所"]}},{"type":"Feature","geometry":{"type":"Point","coordinates":[127.75825,26.301628]},"properties":{"name":"徳洲会ハンビークリニック","category":"医療","address":"北谷町北前１丁目２１番１号","detail":"内科　外科　整形外科　形成外科　リハビリテーション科","source":"国土数値情報 医療機関データ（2020年）","kinds":["診療所"]}},{"type":"Feature","geometry":{"type":"Point","coordinates":[127.759978,26.320987]},"properties":{"name":"比嘉デンタルクリニック","category":"医療","address":"北谷町字伊平254","detail":"歯科　歯科口腔外科　小児歯科","source":"国土数値情報 医療機関データ（2020年）","kinds":["歯科診療所"]}},{"type":"Feature","geometry":{"type":"Point","coordinates":[127.770771,26.328365]},"properties":{"name":"沖縄ホワイトデンタルクリニック","category":"医療","address":"北谷町上勢頭813-2　ﾃﾞｻﾞｲﾝﾏﾝｼｮﾝ龍101","detail":"歯科　小児歯科　矯正歯科　歯科口腔外科","source":"国土数値情報 医療機関データ（2020年）","kinds":["歯科診療所"]}},{"type":"Feature","geometry":{"type":"Point","coordinates":[127.777547,26.31611]},"properties":{"name":"特別養護老人ホーム陽明園診療所","category":"医療","address":"北谷町字吉原２６５","detail":"内科","source":"国土数値情報 医療機関データ（2020年）","kinds":["診療所"]}},{"type":"Feature","geometry":{"type":"Point","coordinates":[127.745487,26.329237]},"properties":{"name":"砂辺クリニック","category":"医療","address":"北谷町字宮城１−４３","detail":"内科　皮膚科　小児科","source":"国土数値情報 医療機関データ（2020年）","kinds":["診療所"]}},{"type":"Feature","geometry":{"type":"Point","coordinates":[127.745875,26.328123]},"properties":{"name":"砂辺スマイル歯科医院","category":"医療","address":"北谷町字宮城１−１０５","detail":"歯科　小児歯科　歯科口腔外科","source":"国土数値情報 医療機関データ（2020年）","kinds":["歯科診療所"]}},{"type":"Feature","geometry":{"type":"Point","coordinates":[127.771636,26.325085]},"properties":{"name":"ケアプランステーション　まほろば","category":"訪問・相談","address":"沖縄県北谷町字吉原７９０－１５","detail":"0","source":"介護サービス情報公表システム（厚生労働省）","kinds":["居宅介護支援（ケアプラン）"]}},{"type":"Feature","geometry":{"type":"Point","coordinates":[127.748637,26.332207]},"properties":{"name":"ヘルパーステーションスイート北谷砂辺","category":"訪問・相談","address":"沖縄県中頭郡北谷町砂辺301-7　1階","detail":"","source":"介護サービス情報公表システム（厚生労働省）","kinds":["訪問介護"]}},{"type":"Feature","geometry":{"type":"Point","coordinates":[127.769545,26.315222]},"properties":{"name":"北谷町社会福祉協議会居宅介護支援事業所","category":"訪問・相談","address":"沖縄県中頭郡北谷町字吉原２６番地６","detail":"37","source":"介護サービス情報公表システム（厚生労働省）","kinds":["居宅介護支援（ケアプラン）"]}},{"type":"Feature","geometry":{"type":"Point","coordinates":[127.765959,26.311942]},"properties":{"name":"居宅介護支援事業所なごみ","category":"訪問・相談","address":"字吉原1178番地","detail":"0","source":"介護サービス情報公表システム（厚生労働省）","kinds":["居宅介護支援（ケアプラン）"]}},{"type":"Feature","geometry":{"type":"Point","coordinates":[127.758329,26.301685]},"properties":{"name":"徳洲会ハンビークリニック　訪問看護事業所","category":"訪問・相談","address":"沖縄県中頭郡北谷町北前1丁目21番1号","detail":"","source":"介護サービス情報公表システム（厚生労働省）","kinds":["訪問看護"]}},{"type":"Feature","geometry":{"type":"Point","coordinates":[127.758338,26.301712]},"properties":{"name":"徳洲会ハンビークリニック居宅介護支援事業所","category":"訪問・相談","address":"沖縄県中頭郡北谷町北前１丁目２１番１号","detail":"0","source":"介護サービス情報公表システム（厚生労働省）","kinds":["居宅介護支援（ケアプラン）"]}},{"type":"Feature","geometry":{"type":"Point","coordinates":[127.765991,26.323395]},"properties":{"name":"琉球メディカルズ訪問介護事業所","category":"訪問・相談","address":"沖縄県中頭郡北谷町桑江４００－２","detail":"5","source":"介護サービス情報公表システム（厚生労働省）","kinds":["訪問介護"]}},{"type":"Feature","geometry":{"type":"Point","coordinates":[127.777564,26.316555]},"properties":{"name":"白川園指定居宅介護支援事業所","category":"訪問・相談","address":"沖縄県中頭郡北谷町字吉原２６３番地介護老人保健施設白川園 介護老人保健施設白川園","detail":"0","source":"介護サービス情報公表システム（厚生労働省）","kinds":["居宅介護支援（ケアプラン）"]}},{"type":"Feature","geometry":{"type":"Point","coordinates":[127.772154,26.322458]},"properties":{"name":"訪問介護あろはちゃたん","category":"訪問・相談","address":"沖縄県中頭郡北谷町桑江619-3メゾンシュシュ102 メゾンシュシュ102","detail":"","source":"介護サービス情報公表システム（厚生労働省）","kinds":["訪問介護"]}},{"type":"Feature","geometry":{"type":"Point","coordinates":[127.778501,26.31972]},"properties":{"name":"訪問看護ライオンラビット","category":"訪問・相談","address":"沖縄県中頭郡北谷町桃原1-3-2UHハウス UHハウス","detail":"20","source":"介護サービス情報公表システム（厚生労働省）","kinds":["訪問看護"]}},{"type":"Feature","geometry":{"type":"Point","coordinates":[127.765764,26.323469]},"properties":{"name":"（株式会社）琉球メディカルズ居宅介護支援事業所","category":"訪問・相談","address":"沖縄県中頭郡北谷町字桑江３９９番の１","detail":"18","source":"介護サービス情報公表システム（厚生労働省）","kinds":["居宅介護支援（ケアプラン）"]}},{"type":"Feature","geometry":{"type":"Point","coordinates":[127.770072,26.326135]},"properties":{"name":"デイサービスちゃたん","category":"通所","address":"沖縄県中頭群北谷町桑江４７９番地8","detail":"0","source":"介護サービス情報公表システム（厚生労働省）","kinds":["通所介護（デイサービス）"]}},{"type":"Feature","geometry":{"type":"Point","coordinates":[127.776845,26.318955]},"properties":{"name":"デイサービスまほろば","category":"通所","address":"沖縄県中頭郡北谷町字吉原790-15","detail":"10","source":"介護サービス情報公表システム（厚生労働省）","kinds":["地域密着型通所介護"]}},{"type":"Feature","geometry":{"type":"Point","coordinates":[127.763017,26.320961]},"properties":{"name":"デイサービスセンター　パステル","category":"通所","address":"沖縄県中頭郡北谷町字桑江１丁目２番２８号グラットホーム・パステル グラットホーム・パステル","detail":"35","source":"介護サービス情報公表システム（厚生労働省）","kinds":["通所介護（デイサービス）"]}},{"type":"Feature","geometry":{"type":"Point","coordinates":[127.760498,26.296003]},"properties":{"name":"リハビックス北前店","category":"通所","address":"沖縄県中頭郡北谷町北前1-20-6","detail":"0","source":"介護サービス情報公表システム（厚生労働省）","kinds":["通所介護（デイサービス）"]}},{"type":"Feature","geometry":{"type":"Point","coordinates":[127.759676,26.322075]},"properties":{"name":"リハビリ特化型デイサービス　リハビックス北谷店","category":"通所","address":"沖縄県北谷町伊平2丁目1番18号ＩＧＬＯＯ　１階 ＩＧＬＯＯ　１階","detail":"0","source":"介護サービス情報公表システム（厚生労働省）","kinds":["通所介護（デイサービス）"]}},{"type":"Feature","geometry":{"type":"Point","coordinates":[127.758329,26.301685]},"properties":{"name":"徳洲会ハンビークリニック　通所リハビリテーション事業所","category":"通所","address":"沖縄県中頭郡北谷町北前1丁目21番1号","detail":"0","source":"介護サービス情報公表システム（厚生労働省）","kinds":["通所リハビリテーション"]}},{"type":"Feature","geometry":{"type":"Point","coordinates":[127.752031,26.325874]},"properties":{"name":"指定通所介護ようめいえん","category":"通所","address":"北谷町字宮城１番７９３","detail":"0","source":"介護サービス情報公表システム（厚生労働省）","kinds":["通所介護（デイサービス）"]}},{"type":"Feature","geometry":{"type":"Point","coordinates":[127.765959,26.311942]},"properties":{"name":"指定通所介護事業所　和","category":"通所","address":"沖縄県中頭郡北谷町字吉原1178番地","detail":"0","source":"介護サービス情報公表システム（厚生労働省）","kinds":["地域密着型通所介護"]}},{"type":"Feature","geometry":{"type":"Point","coordinates":[127.766159,26.323338]},"properties":{"name":"株式会社　琉球メディカルズ　通所介護事業所","category":"通所","address":"沖縄県中頭郡北谷町字桑江400番の2","detail":"65","source":"介護サービス情報公表システム（厚生労働省）","kinds":["通所介護（デイサービス）"]}},{"type":"Feature","geometry":{"type":"Point","coordinates":[127.777564,26.316555]},"properties":{"name":"白川園通所リハビリテーション","category":"通所","address":"沖縄県中頭郡北谷町字吉原２６３番地","detail":"20","source":"介護サービス情報公表システム（厚生労働省）","kinds":["通所リハビリテーション"]}},{"type":"Feature","geometry":{"type":"Point","coordinates":[127.770022,26.315758]},"properties":{"name":"社会福祉法人　北谷町社会福祉協議会　指定通所介護事業所","category":"通所","address":"沖縄県中頭郡北谷町字桑江７３１番地　北谷町保健相談センター内","detail":"55","source":"介護サービス情報公表システム（厚生労働省）","kinds":["通所介護（デイサービス）"]}},{"type":"Feature","geometry":{"type":"Point","coordinates":[127.768855,26.327482]},"properties":{"name":"通所介護たまき","category":"通所","address":"沖縄県中頭郡北谷町上勢頭837番地8","detail":"0","source":"介護サービス情報公表システム（厚生労働省）","kinds":["通所介護（デイサービス）"]}},{"type":"Feature","geometry":{"type":"Point","coordinates":[127.768838,26.326927]},"properties":{"name":"通所介護ハピネス","category":"通所","address":"沖縄県北谷町上勢頭８２１－６","detail":"18","source":"介護サービス情報公表システム（厚生労働省）","kinds":["地域密着型通所介護"]}},{"type":"Feature","geometry":{"type":"Point","coordinates":[127.777503,26.316022]},"properties":{"name":"陽明園指定短期入所生活介護事業所","category":"通所","address":"沖縄県中頭郡北谷町字吉原265番地","detail":"8","source":"介護サービス情報公表システム（厚生労働省）","kinds":["短期入所生活介護（ショートステイ）"]}}],"metadata":{"counts":{"入所":7,"医療":34,"訪問・相談":11,"通所":14},"sources":["国土数値情報「医療機関データ」（国土交通省、2020年）","「介護サービス情報公表システム」オープンデータ（厚生労働省、2026年7月時点）"]}}